ONEWEB-0055             
1 45443U 20020V   20112.91667824  .00059574  00000-0  20440-2 0  9995
2 45443  87.4102 127.8635 0026877 174.2043 173.1841 15.29571939  4748
ONEWEB-0093             
1 45444U 20020W   20112.91667824  .00073536  00000-0  21420-2 0  9999
2 45444  87.3981 127.8718 0027433 174.7341 176.3817 15.34733069  4748
ONEWEB-0029             
1 45445U 20020X   20112.91667824  .00039984  00000-0  15103-2 0  9990
2 45445  87.4141 127.8791 0027632 175.1707 107.2510 15.26472293  4744
ONEWEB-0068             
1 45446U 20020Y   20112.91667824  .00057502  00000-0  22030-2 0  9994
2 45446  87.4162 127.8898 0028266 177.3928  77.8039 15.25922274  4745
ONEWEB-0046             
1 45447U 20020Z   20112.91667824 -.00078868  00000-0 -32204-2 0  9999
2 45447  87.4194 127.8851 0028060 178.2446  42.8842 15.24427934  4743
ONEWEB-0063             
1 45448U 20020AA  20112.91667824  .00074020  00000-0  26792-2 0  9999
2 45448  87.4129 127.8945 0027755 180.0328  73.5191 15.27746534  4747
ONEWEB-0019             
1 45449U 20020AB  20112.91667824  .00055747  00000-0  36711-2 0  9997
2 45449  87.4616 128.0498 0027824 181.1524  81.1573 15.06965503  4725
ONEWEB-0094             
1 45450U 20020AC  20112.91667824  .00061239  00000-0  25447-2 0  9996
2 45450  87.4171 127.9077 0027230 182.7613 314.0416 15.23217533  4749
ONEWEB-0087             
1 45451U 20020AD  20112.91667824  .00051426  00000-0  33196-2 0  9994
2 45451  87.4390 128.0002 0026741 183.9768 214.7615 15.07745818  4733
ONEWEB-0082             
1 45452U 20020AE  20112.91667824  .00059040  00000-0  25734-2 0  9994
2 45452  87.4124 127.9161 0026799 184.4778 247.7062 15.21617549  4741
ONEWEB-0050             
1 45453U 20020AF  20112.91667824  .00014580  00000-0  53701-3 0  9991
2 45453  87.4295 127.8997 0025660 184.0092 357.5390 15.27402940  4745
ONEWEB-0034             
1 45454U 20020AG  20112.91667824  .00056457  00000-0  25158-2 0  9995
2 45454  87.4142 127.9211 0025328 182.9021 211.7849 15.20908715  4741
ONEWEB-0060             
1 45455U 20020AH  20112.91667824  .00058961  00000-0  52329-2 0  9998
2 45455  87.4635 128.1359 0024427 183.1712 334.2095 14.95672485  4718
ONEWEB-0086             
1 45456U 20020AJ  20112.91667824  .00061890  00000-0  51785-2 0  9999
2 45456  87.4536 128.1068 0024225 181.8982  17.6905 14.97955617  4711
ONEWEB-0088             
1 45457U 20020AK  20112.91667824 -.00079634  00000-0 -73628-2 0  9997
2 45457  87.4404 128.1225 0023429 182.0320 244.2812 14.94876100  4716
